STARLINK-3673           
1 52093U 22029F   25106.31581365 -.00000322  00000+0 -21338-5 0  9990
2 52093  53.2167 118.7698 0001388  74.9613 285.1533 15.08836277171233
STARLINK-3714           
1 52094U 22029G   25106.31853669  .00000239  00000+0  33116-4 0  9991
2 52094  53.2140 118.7467 0001550  69.4570 290.6588 15.08853531171234
STARLINK-3701           
1 52095U 22029H   25106.30749445  .00013201  00000+0  84491-3 0  9991
2 52095  53.2164 118.7933 0000888 134.3270 225.7795 15.08884166171238
STARLINK-3717           
1 52096U 22029J   25106.28635647 -.00002481  00000+0 -13800-3 0  9993
2 52096  53.2162 108.8898 0001088  48.7066 311.4020 15.08809729171350
STARLINK-3665           
1 52098U 22029L   25106.31117406 -.00000214  00000+0  46578-5 0  9998
2 52098  53.2153 118.7781 0001527  91.1601 268.9566 15.08837066171231
STARLINK-3702           
1 52100U 22029N   25106.30381115  .00001101  00000+0  87280-4 0  9990
2 52100  53.2168 118.8119 0001309  92.0464 268.0678 15.08841195171235
STARLINK-3703           
1 52101U 22029P   25106.31487533 -.00000165  00000+0  77154-5 0  9993
2 52101  53.2167 118.9533 0001339  98.5639 261.5505 15.08836513171228
STARLINK-3709           
1 52102U 22029Q   25106.30570360 -.00001295  00000+0 -63334-4 0  9994
2 52102  53.2171 108.8061 0001859 125.1989 234.9177 15.08820806171362
STARLINK-3705           
1 52103U 22029R   25106.27903492 -.00006930  00000+0 -41842-3 0  9997
2 52103  53.2160 108.9232 0001253  75.0369 285.0762 15.08779010171351
STARLINK-3706           
1 52105U 22029T   25105.27898641  .00005229  00000+0  34630-3 0  9992
2 52105  53.2156 113.4124 0001239  87.7820 272.3314 15.08848443171208
STARLINK-3670           
1 52106U 22029U   25106.29277538  .00001220  00000+0  94736-4 0  9993
2 52106  53.2166 118.8605 0001367  89.0703 271.0445 15.08838440171229
STARLINK-3658           
1 52107U 22029V   25106.20169409  .00000185  00000+0  29740-4 0  9994
2 52107  53.2136 109.2683 0001288  79.2807 280.8330 15.08837317171341
STARLINK-3698           
1 52108U 22029W   25106.01033050  .00000953  00000+0  77954-4 0  9999
2 52108  53.2159 110.1288 0001420  89.1988 270.9166 15.08845776171319
STARLINK-3687           
1 52110U 22029Y   25106.20537414  .00000887  00000+0  73820-4 0  9990
2 52110  53.2170 109.2525 0001598  88.8721 271.2455 15.08839876171347
STARLINK-3708           
1 52111U 22029Z   25106.32320947 -.00009483  00000+0 -57979-3 0  9994
2 52111  53.2165 108.7242 0001718 102.7002 257.4182 15.08757221171362
STARLINK-3734           
1 52112U 22029AA  25106.33049128  .00001729  00000+0  12670-3 0  9997
2 52112  53.2169 108.6917 0001410  86.1393 273.9760 15.08843168171363
STARLINK-3736           
1 52113U 22029AB  25106.31577464  .00002816  00000+0  19498-3 0  9998
2 52113  53.2157 108.7586 0001245  97.8396 262.2738 15.08837068171360
STARLINK-3737           
1 52114U 22029AC  25106.32681265  .00001163  00000+0  91153-4 0  9998
2 52114  53.2171 108.7066 0001383  85.5051 274.6099 15.08844952171362
STARLINK-3685           
1 52115U 22029AD  25106.30841387  .00001562  00000+0  11622-3 0  9995
2 52115  53.2160 108.7918 0001298  88.9294 271.1847 15.08834457171360
STARLINK-3735           
1 52116U 22029AE  25106.31946580  .00007223  00000+0  47126-3 0  9996
2 52116  53.2144 108.7384 0001475 100.9859 259.1299 15.08855409171366
STARLINK-3738           
1 52117U 22029AF  25106.23481403  .00000546  00000+0  52383-4 0  9999
2 52117  53.2164 109.1193 0001267  83.4595 276.6541 15.08837507171366
STARLINK-3743           
1 52118U 22029AG  25106.31209737  .00001188  00000+0  92733-4 0  9993
2 52118  53.2161 108.7732 0001409  94.4966 265.6187 15.08838032171368
STARLINK-3558           
1 52119U 22029AH  25106.29349586 -.00020821  00000+0 -12921-2 0  9994
2 52119  53.2143 108.8517 0001565 111.3090 248.8069 15.08890009171365
STARLINK-3534           
1 52120U 22029AJ  25106.30473683  .00000458  00000+0  46887-4 0  9996
2 52120  53.2164 108.8080 0001435 103.1344 256.9809 15.08835651171377
STARLINK-3678           
1 52121U 22029AK  25106.20997223  .00000917  00000+0  75703-4 0  9996
2 52121  53.2170  99.2317 0001473  98.6405 261.4754 15.08838629171489
STARLINK-3726           
1 52122U 22029AL  25106.29737294  .00000356  00000+0  40448-4 0  9991
2 52122  53.2161 108.8395 0001419 103.1654 256.9496 15.08837993171363
STARLINK-3725           
1 52123U 22029AM  25106.18515385  .00001971  00000+0  14185-3 0  9997
2 52123  53.2182  99.1639 0001545 108.8973 251.2187 15.08844576171490
STARLINK-3727           
1 52125U 22029AP  25106.19893395 -.00000241  00000+0  29314-5 0  9992
2 52125  53.2163  99.2830 0001383  88.6696 271.4454 15.08834841171497
STARLINK-3732           
1 52126U 22029AQ  25106.20629357  .00000421  00000+0  44528-4 0  9992
2 52126  53.2165  99.2484 0001366  94.8546 265.2602 15.08834529171487
STARLINK-3715           
1 52127U 22029AR  25106.19524980  .00000705  00000+0  62379-4 0  9996
2 52127  53.2164  99.3005 0001366  84.2395 275.8752 15.08838511171480
STARLINK-3661           
1 52129U 22029AT  25106.18792840 -.00004294  00000+0 -25214-3 0  9994
2 52129  53.2164  99.3318 0000974  81.3250 278.7852 15.08799822171496
STARLINK-3711           
1 52131U 22029AV  25106.18421405  .00000651  00000+0  58955-4 0  9993
2 52131  53.2141  99.3452 0001336  95.0229 265.0916 15.08850352171490
STARLINK-3718           
1 52132U 22029AW  25106.19156915  .00000755  00000+0  65496-4 0  9999
2 52132  53.2163  99.3146 0001393  88.5698 271.5454 15.08840543171495
STARLINK-3707           
1 52133U 22029AX  25106.17684753 -.00004179  00000+0 -24461-3 0  9996
2 52133  53.2171  99.3799 0001535  88.3388 271.7780 15.08838001171491
STARLINK-3721           
1 52134U 22029AY  25106.24679641  .00001361  00000+0  10358-3 0  9993
2 52134  53.2166  99.0685 0001464  84.5106 275.6053 15.08847487171500
STARLINK-3729           
1 52135U 22029AZ  25106.29923440 -.00015613  00000+0 -96460-3 0  9993
2 52135  53.2160  98.8406 0001460  92.3638 267.7521 15.08855084171511
STARLINK-3720           
1 52136U 22029BA  25106.17317669  .00000790  00000+0  67741-4 0  9990
2 52136  53.2179  99.3948 0001707  88.5781 271.5406 15.08833940171498
STARLINK-3733           
1 52137U 22029BB  25106.29461924  .00001076  00000+0  85672-4 0  9999
2 52137  53.2162  98.8520 0001634  61.8536 298.2621 15.08841069171511
STARLINK-3723           
1 52138U 22029BC  25106.30198652  .00002288  00000+0  16177-3 0  9996
2 52138  53.2171  98.8181 0001597  91.3591 268.7584 15.08843487171518
STARLINK-3730           
1 52139U 22029BD  25106.28265192  .00000640  00000+0  58326-4 0  9991
2 52139  53.2161 108.9068 0001438  91.6223 268.4934 15.08836747171364
STARLINK-3682           
1 52140U 22029BE  25106.15845422  .00001327  00000+0  10146-3 0  9999
2 52140  53.2165  99.4616 0001408  82.2789 277.8363 15.08837308171491
STARLINK-3761           
1 52262U 22041B   25106.48597379  .00004104  00000+0  27563-3 0  9996
2 52262  53.2148 137.9455 0001446  82.2879 277.8278 15.08858337164962
STARLINK-3786           
1 52263U 22041C   25106.48965545  .00000256  00000+0  34149-4 0  9994
2 52263  53.2162 137.9769 0001345  90.6532 269.4615 15.08839159164967
STARLINK-3795           
1 52264U 22041D   25106.48229403 -.00001163  00000+0 -55022-4 0  9994
2 52264  53.2166 138.0122 0001444  79.7133 280.4022 15.08829311164966
STARLINK-3740           
1 52265U 22041E   25106.47863315 -.00000972  00000+0 -43010-4 0  9991
2 52265  53.2155 138.0252 0001375  93.7837 266.3312 15.08830591164966
STARLINK-3739           
1 52266U 22041F   25106.47493846  .00000503  00000+0  49705-4 0  9995
2 52266  53.2161 138.0446 0001188  84.1216 275.9912 15.08840789164968
STARLINK-3748           
1 52267U 22041G   25106.47125228  .00001410  00000+0  10666-3 0  9993
2 52267  53.2148 138.0670 0001313  83.1782 276.9359 15.08842881164961
STARLINK-3746           
1 52268U 22041H   25106.51909005  .00000422  00000+0  44622-4 0  9994
2 52268  53.2163 137.7684 0001298  95.4986 264.6155 15.08830853164979
STARLINK-3791           
1 52269U 22041J   25106.40134322  .00001630  00000+0  12048-3 0  9993
2 52269  53.2162 138.3735 0001435  76.8344 283.2808 15.08834013164959
STARLINK-3804           
1 52270U 22041K   25106.39398038  .00000236  00000+0  32929-4 0  9991
2 52270  53.2142 138.4355 0001475  92.9379 267.1781 15.08834565164952
STARLINK-3788           
1 52271U 22041L   25106.39765341  .00000825  00000+0  69894-4 0  9992
2 52271  53.2162 138.3907 0001320  93.4042 266.7101 15.08838381164950
STARLINK-3781           
1 52272U 22041M   25106.39125252  .00001118  00000+0  88291-4 0  9992
2 52272  53.2149 138.4535 0001353  79.7615 280.3530 15.08843317164956
STARLINK-3782           
1 52273U 22041N   25106.36277452 -.00007852  00000+0 -47528-3 0  9990
2 52273  53.2179 128.9382 0001654 120.1533 239.9623 15.08879282165086
STARLINK-3790           
1 52274U 22041P   25106.51541868  .00000401  00000+0  43273-4 0  9998
2 52274  53.2159 137.8601 0001364  85.4730 274.6418 15.08834812164973
STARLINK-3784           
1 52275U 22041Q   25106.58902807  .00002464  00000+0  17289-3 0  9998
2 52275  53.2153 137.5314 0001428  89.9878 270.1278 15.08828694164986
STARLINK-3778           
1 52276U 22041R   25106.51173578  .00000073  00000+0  22675-4 0  9997
2 52276  53.2166 137.8793 0001310  88.5202 271.5940 15.08837298164971
STARLINK-3780           
1 52278U 22041T   25106.50807387 -.00002138  00000+0 -11630-3 0  9994
2 52278  53.2154 137.8919 0001892  85.6688 274.4520 15.08822717164977
STARLINK-3764           
1 52280U 22041V   25106.49701039 -.00000961  00000+0 -42279-4 0  9998
2 52280  53.2158 137.9443 0001470  97.0084 263.1076 15.08847689164972
STARLINK-3779           
1 52281U 22041W   25106.51269225  .00000261  00000+0  34476-4 0  9999
2 52281  53.2157 137.8727 0001718  83.5113 276.6075 15.08838013164973
